[{"OBJECT_NAME":"JILIN-1 06","OBJECT_ID":"2017-074C","EPOCH":"2026-03-09T22:46:57.173376","MEAN_MOTION":15.32444387,"ECCENTRICITY":0.00061285,"INCLINATION":97.4715,"RA_OF_ASC_NODE":171.0354,"ARG_OF_PERICENTER":223.0031,"MEAN_ANOMALY":137.0732,"EPHEMERIS_TYPE":0,"CLASSIFICATION_TYPE":"U","NORAD_CAT_ID":43024,"ELEMENT_SET_NO":999,"REV_AT_EPOCH":45863,"BSTAR":0.00028431628,"MEAN_MOTION_DOT":8.833e-5,"MEAN_MOTION_DDOT":0},{"OBJECT_NAME":"STARLINK-32185","OBJECT_ID":"2024-136N","EPOCH":"2026-03-09T06:49:01.073280","MEAN_MOTION":15.3021752,"ECCENTRICITY":0.00016352,"INCLINATION":53.1604,"RA_OF_ASC_NODE":77.4677,"ARG_OF_PERICENTER":79.0304,"MEAN_ANOMALY":281.088,"EPHEMERIS_TYPE":0,"CLASSIFICATION_TYPE":"U","NORAD_CAT_ID":60341,"ELEMENT_SET_NO":999,"REV_AT_EPOCH":8960,"BSTAR":0.00013055525,"MEAN_MOTION_DOT":3.511e-5,"MEAN_MOTION_DDOT":0}]
